ATLAS CENTAUR R/B       
1 06155U 72065B   26092.20601793  .00001839  00000+0  25292-3 0  9997
2 06155  35.0006 167.9301 0033782 209.1382 150.7433 14.77757097844742
SL-8 R/B                
1 08459U 75112B   26092.08356204  .00000254  00000+0  92092-4 0  9995
2 08459  74.0625 335.8815 0014642  59.5666 300.6933 14.38217015635234
SL-3 R/B                
1 10114U 77057B   26092.15210964  .00018306  00000+0  37415-3 0  9990
2 10114  97.5796 265.1220 0007058 189.4133 170.6984 15.46182760671952
SEASAT 1                
1 10967U 78064A   26092.22202975  .00000442  00000+0  16175-3 0  9998
2 10967 108.0069 174.8750 0002704 274.0486  86.0351 14.46180700509913
SL-14 R/B               
1 11267U 79011B   26092.18884362  .00001017  00000+0  97879-4 0  9996
2 11267  82.5217  74.2653 0015534 344.8409  15.2342 14.91940791532283
SL-8 R/B                
1 11574U 79089B   26092.18887731  .00000469  00000+0  14966-3 0  9990
2 11574  74.0698  47.5404 0016608 217.0796 142.9214 14.42366756439497
SL-14 R/B               
1 11672U 80005B   26092.15023980  .00000845  00000+0  82839-4 0  9997
2 11672  82.5109 284.9758 0017235  85.7181 274.6007 14.90958656479981
SL-8 R/B                
1 12139U 81003B   26091.97355105  .00025012  00000+0  62317-3 0  9992
2 12139  82.9327 268.4745 0260350  97.7271 265.3605 15.12036220318195
SL-3 R/B                
1 12465U 81046B   26092.14108808  .00016938  00000+0  38646-3 0  9992
2 12465  81.2283 261.5658 0018132 298.9090  61.0334 15.42586607442044
SL-3 R/B                
1 12904U 81103B   26092.11866131  .00007253  00000+0  31905-3 0  9992
2 12904  81.1616 185.9482 0013018 203.3142 156.7501 15.21661450976790
SL-3 R/B                
1 13068U 82013B   26092.18315751  .00005666  00000+0  24356-3 0  9997
2 13068  81.1726 133.2309 0023573 100.7486 259.6402 15.22229766407924
SL-3 R/B                
1 13154U 82039B   26092.17877220  .00003759  00000+0  22655-3 0  9995
2 13154  81.1564 188.8766 0028323 246.3551 113.4701 15.10217363385180
