CCSDS_OMM_VERS = 2.0
CREATION_DATE  = 
ORIGINATOR     = 

OBJECT_NAME    = ATLAS CENTAUR R/B
OBJECT_ID      = 1972-065B
CENTER_NAME    = EARTH
REF_FRAME      = TEME
TIME_SYSTEM    = UTC
MEAN_ELEMENT_THEORY = SGP/SGP4

EPOCH          = 2026-04-02T04:56:39.949152
MEAN_MOTION    = 14.77757097
ECCENTRICITY   = .0033782
INCLINATION    = 35.0006
RA_OF_ASC_NODE = 167.9301
ARG_OF_PERICENTER = 209.1382
MEAN_ANOMALY   = 150.7433

EPHEMERIS_TYPE = 0
CLASSIFICATION_TYPE = U
NORAD_CAT_ID   = 6155
ELEMENT_SET_NO = 999
REV_AT_EPOCH   = 84474
BSTAR          = .25292E-3
MEAN_MOTION_DOT = .1839E-4
MEAN_MOTION_DDOT = 0

CCSDS_OMM_VERS = 2.0
CREATION_DATE  = 
ORIGINATOR     = 

OBJECT_NAME    = SL-8 R/B
OBJECT_ID      = 1975-112B
CENTER_NAME    = EARTH
REF_FRAME      = TEME
TIME_SYSTEM    = UTC
MEAN_ELEMENT_THEORY = SGP/SGP4

EPOCH          = 2026-04-02T02:00:19.760256
MEAN_MOTION    = 14.38217015
ECCENTRICITY   = .0014642
INCLINATION    = 74.0625
RA_OF_ASC_NODE = 335.8815
ARG_OF_PERICENTER = 59.5666
MEAN_ANOMALY   = 300.6933

EPHEMERIS_TYPE = 0
CLASSIFICATION_TYPE = U
NORAD_CAT_ID   = 8459
ELEMENT_SET_NO = 999
REV_AT_EPOCH   = 63523
BSTAR          = .92092E-4
MEAN_MOTION_DOT = .254E-5
MEAN_MOTION_DDOT = 0

CCSDS_OMM_VERS = 2.0
CREATION_DATE  = 
ORIGINATOR     = 

OBJECT_NAME    = SL-3 R/B
OBJECT_ID      = 1977-057B
CENTER_NAME    = EARTH
REF_FRAME      = TEME
TIME_SYSTEM    = UTC
MEAN_ELEMENT_THEORY = SGP/SGP4

EPOCH          = 2026-04-02T03:39:02.272896
MEAN_MOTION    = 15.46182760
ECCENTRICITY   = .0007058
INCLINATION    = 97.5796
RA_OF_ASC_NODE = 265.1220
ARG_OF_PERICENTER = 189.4133
MEAN_ANOMALY   = 170.6984

EPHEMERIS_TYPE = 0
CLASSIFICATION_TYPE = U
NORAD_CAT_ID   = 10114
ELEMENT_SET_NO = 999
REV_AT_EPOCH   = 67195
BSTAR          = .37415E-3
MEAN_MOTION_DOT = .18306E-3
MEAN_MOTION_DDOT = 0

CCSDS_OMM_VERS = 2.0
CREATION_DATE  = 
ORIGINATOR     = 

OBJECT_NAME    = SEASAT 1
OBJECT_ID      = 1978-064A
CENTER_NAME    = EARTH
REF_FRAME      = TEME
TIME_SYSTEM    = UTC
MEAN_ELEMENT_THEORY = SGP/SGP4

EPOCH          = 2026-04-02T05:19:43.370400
MEAN_MOTION    = 14.46180700
ECCENTRICITY   = .0002704
INCLINATION    = 108.0069
RA_OF_ASC_NODE = 174.8750
ARG_OF_PERICENTER = 274.0486
MEAN_ANOMALY   = 86.0351

EPHEMERIS_TYPE = 0
CLASSIFICATION_TYPE = U
NORAD_CAT_ID   = 10967
ELEMENT_SET_NO = 999
REV_AT_EPOCH   = 50991
BSTAR          = .16175E-3
MEAN_MOTION_DOT = .442E-5
MEAN_MOTION_DDOT = 0

CCSDS_OMM_VERS = 2.0
CREATION_DATE  = 
ORIGINATOR     = 

OBJECT_NAME    = SL-14 R/B
OBJECT_ID      = 1979-011B
CENTER_NAME    = EARTH
REF_FRAME      = TEME
TIME_SYSTEM    = UTC
MEAN_ELEMENT_THEORY = SGP/SGP4

EPOCH          = 2026-04-02T04:31:56.088768
MEAN_MOTION    = 14.91940791
ECCENTRICITY   = .0015534
INCLINATION    = 82.5217
RA_OF_ASC_NODE = 74.2653
ARG_OF_PERICENTER = 344.8409
MEAN_ANOMALY   = 15.2342

EPHEMERIS_TYPE = 0
CLASSIFICATION_TYPE = U
NORAD_CAT_ID   = 11267
ELEMENT_SET_NO = 999
REV_AT_EPOCH   = 53228
BSTAR          = .97879E-4
MEAN_MOTION_DOT = .1017E-4
MEAN_MOTION_DDOT = 0

CCSDS_OMM_VERS = 2.0
CREATION_DATE  = 
ORIGINATOR     = 

OBJECT_NAME    = SL-8 R/B
OBJECT_ID      = 1979-089B
CENTER_NAME    = EARTH
REF_FRAME      = TEME
TIME_SYSTEM    = UTC
MEAN_ELEMENT_THEORY = SGP/SGP4

EPOCH          = 2026-04-02T04:31:58.999584
MEAN_MOTION    = 14.42366756
ECCENTRICITY   = .0016608
INCLINATION    = 74.0698
RA_OF_ASC_NODE = 47.5404
ARG_OF_PERICENTER = 217.0796
MEAN_ANOMALY   = 142.9214

EPHEMERIS_TYPE = 0
CLASSIFICATION_TYPE = U
NORAD_CAT_ID   = 11574
ELEMENT_SET_NO = 999
REV_AT_EPOCH   = 43949
BSTAR          = .14966E-3
MEAN_MOTION_DOT = .469E-5
MEAN_MOTION_DDOT = 0

CCSDS_OMM_VERS = 2.0
CREATION_DATE  = 
ORIGINATOR     = 

OBJECT_NAME    = SL-14 R/B
OBJECT_ID      = 1980-005B
CENTER_NAME    = EARTH
REF_FRAME      = TEME
TIME_SYSTEM    = UTC
MEAN_ELEMENT_THEORY = SGP/SGP4

EPOCH          = 2026-04-02T03:36:20.718720
MEAN_MOTION    = 14.90958656
ECCENTRICITY   = .0017235
INCLINATION    = 82.5109
RA_OF_ASC_NODE = 284.9758
ARG_OF_PERICENTER = 85.7181
MEAN_ANOMALY   = 274.6007

EPHEMERIS_TYPE = 0
CLASSIFICATION_TYPE = U
NORAD_CAT_ID   = 11672
ELEMENT_SET_NO = 999
REV_AT_EPOCH   = 47998
BSTAR          = .82839E-4
MEAN_MOTION_DOT = .845E-5
MEAN_MOTION_DDOT = 0

CCSDS_OMM_VERS = 2.0
CREATION_DATE  = 
ORIGINATOR     = 

OBJECT_NAME    = SL-8 R/B
OBJECT_ID      = 1981-003B
CENTER_NAME    = EARTH
REF_FRAME      = TEME
TIME_SYSTEM    = UTC
MEAN_ELEMENT_THEORY = SGP/SGP4

EPOCH          = 2026-04-01T23:21:54.810720
MEAN_MOTION    = 15.12036220
ECCENTRICITY   = .026035
INCLINATION    = 82.9327
RA_OF_ASC_NODE = 268.4745
ARG_OF_PERICENTER = 97.7271
MEAN_ANOMALY   = 265.3605

EPHEMERIS_TYPE = 0
CLASSIFICATION_TYPE = U
NORAD_CAT_ID   = 12139
ELEMENT_SET_NO = 999
REV_AT_EPOCH   = 31819
BSTAR          = .62317E-3
MEAN_MOTION_DOT = .25012E-3
MEAN_MOTION_DDOT = 0

CCSDS_OMM_VERS = 2.0
CREATION_DATE  = 
ORIGINATOR     = 

OBJECT_NAME    = SL-3 R/B
OBJECT_ID      = 1981-046B
CENTER_NAME    = EARTH
REF_FRAME      = TEME
TIME_SYSTEM    = UTC
MEAN_ELEMENT_THEORY = SGP/SGP4

EPOCH          = 2026-04-02T03:23:10.010112
MEAN_MOTION    = 15.42586607
ECCENTRICITY   = .0018132
INCLINATION    = 81.2283
RA_OF_ASC_NODE = 261.5658
ARG_OF_PERICENTER = 298.9090
MEAN_ANOMALY   = 61.0334

EPHEMERIS_TYPE = 0
CLASSIFICATION_TYPE = U
NORAD_CAT_ID   = 12465
ELEMENT_SET_NO = 999
REV_AT_EPOCH   = 44204
BSTAR          = .38646E-3
MEAN_MOTION_DOT = .16938E-3
MEAN_MOTION_DDOT = 0

CCSDS_OMM_VERS = 2.0
CREATION_DATE  = 
ORIGINATOR     = 

OBJECT_NAME    = SL-3 R/B
OBJECT_ID      = 1981-103B
CENTER_NAME    = EARTH
REF_FRAME      = TEME
TIME_SYSTEM    = UTC
MEAN_ELEMENT_THEORY = SGP/SGP4

EPOCH          = 2026-04-02T02:50:52.337184
MEAN_MOTION    = 15.21661450
ECCENTRICITY   = .0013018
INCLINATION    = 81.1616
RA_OF_ASC_NODE = 185.9482
ARG_OF_PERICENTER = 203.3142
MEAN_ANOMALY   = 156.7501

EPHEMERIS_TYPE = 0
CLASSIFICATION_TYPE = U
NORAD_CAT_ID   = 12904
ELEMENT_SET_NO = 999
REV_AT_EPOCH   = 97679
BSTAR          = .31905E-3
MEAN_MOTION_DOT = .7253E-4
MEAN_MOTION_DDOT = 0

CCSDS_OMM_VERS = 2.0
CREATION_DATE  = 
ORIGINATOR     = 

OBJECT_NAME    = SL-3 R/B
OBJECT_ID      = 1982-013B
CENTER_NAME    = EARTH
REF_FRAME      = TEME
TIME_SYSTEM    = UTC
MEAN_ELEMENT_THEORY = SGP/SGP4

EPOCH          = 2026-04-02T04:23:44.808864
MEAN_MOTION    = 15.22229766
ECCENTRICITY   = .0023573
INCLINATION    = 81.1726
RA_OF_ASC_NODE = 133.2309
ARG_OF_PERICENTER = 100.7486
MEAN_ANOMALY   = 259.6402

EPHEMERIS_TYPE = 0
CLASSIFICATION_TYPE = U
NORAD_CAT_ID   = 13068
ELEMENT_SET_NO = 999
REV_AT_EPOCH   = 40792
BSTAR          = .24356E-3
MEAN_MOTION_DOT = .5666E-4
MEAN_MOTION_DDOT = 0

CCSDS_OMM_VERS = 2.0
CREATION_DATE  = 
ORIGINATOR     = 

OBJECT_NAME    = SL-3 R/B
OBJECT_ID      = 1982-039B
CENTER_NAME    = EARTH
REF_FRAME      = TEME
TIME_SYSTEM    = UTC
MEAN_ELEMENT_THEORY = SGP/SGP4

EPOCH          = 2026-04-02T04:17:25.918080
MEAN_MOTION    = 15.10217363
ECCENTRICITY   = .0028323
INCLINATION    = 81.1564
RA_OF_ASC_NODE = 188.8766
ARG_OF_PERICENTER = 246.3551
MEAN_ANOMALY   = 113.4701

EPHEMERIS_TYPE = 0
CLASSIFICATION_TYPE = U
NORAD_CAT_ID   = 13154
ELEMENT_SET_NO = 999
REV_AT_EPOCH   = 38518
BSTAR          = .22655E-3
MEAN_MOTION_DOT = .3759E-4
MEAN_MOTION_DDOT = 0

